start=new Date('2022-09-02T00:00:00.000Z').valueOf();
sats=[{"TLE_LINE2":"2 52131  53.2178  76.6802 0001621  61.7352 123.1204 15.08817317 26971","MEAN_MOTION_DDOT":"0.0000000000000","RA_OF_ASC_NODE":"76.6802","REF_FRAME":"TEME","COUNTRY_CODE":"US","GP_ID":"211474081","LAUNCH_DATE":"2022-03-19","TIME_SYSTEM":"UTC","OBJECT_TYPE":"PAYLOAD","EPOCH":"2022-09-01T22:00:00.999936","INCLINATION":"53.2178","APOAPSIS":"540.936","CENTER_NAME":"EARTH","EPHEMERIS_TYPE":"0","PERIOD":"95.439","MEAN_ANOMALY":"123.1204","MEAN_MOTION":"15.08817317","SEMIMAJOR_AXIS":"6917.950","NORAD_CAT_ID":"52131","ARG_OF_PERICENTER":"61.7352","TLE_LINE1":"1 52131U 22029AV  22244.91667824  .00022358  00000-0  14193-2 0  9994","REV_AT_EPOCH":"2697","SITE":"AFETR","DECAY_DATE":null,"OBJECT_NAME":"STARLINK-3711","OBJECT_ID":"2022-029AV","MEAN_MOTION_DOT":"0.00022358","PERIAPSIS":"538.693","FILE":"3553700","MEAN_ELEMENT_THEORY":"SGP4","ELEMENT_SET_NO":"999","RCS_SIZE":"LARGE","BSTAR":"0.00141930000000","ECCENTRICITY":"0.00016210","CLASSIFICATION_TYPE":"U"},{"MEAN_MOTION":"15.08819731","MEAN_ANOMALY":"85.8812","SEMIMAJOR_AXIS":"6917.942","NORAD_CAT_ID":"52132","EPOCH":"2022-09-01T22:00:00.999936","INCLINATION":"53.2170","APOAPSIS":"541.385","EPHEMERIS_TYPE":"0","CENTER_NAME":"EARTH","PERIOD":"95.439","GP_ID":"211473598","TIME_SYSTEM":"UTC","LAUNCH_DATE":"2022-03-19","OBJECT_TYPE":"PAYLOAD","TLE_LINE2":"2 52132  53.2170  76.6871 0002280  58.9930  85.8812 15.08819731 26973","MEAN_MOTION_DDOT":"0.0000000000000","COUNTRY_CODE":"US","RA_OF_ASC_NODE":"76.6871","REF_FRAME":"TEME","RCS_SIZE":"LARGE","ECCENTRICITY":"0.00022800","BSTAR":"0.00179600000000","CLASSIFICATION_TYPE":"U","ELEMENT_SET_NO":"999","OBJECT_ID":"2022-029AW","MEAN_MOTION_DOT":"0.00028396","FILE":"3553701","MEAN_ELEMENT_THEORY":"SGP4","PERIAPSIS":"538.230","SITE":"AFETR","REV_AT_EPOCH":"2697","ARG_OF_PERICENTER":"58.9930","TLE_LINE1":"1 52132U 22029AW  22244.91667824  .00028396  00000-0  17960-2 0  9998","DECAY_DATE":null,"OBJECT_NAME":"STARLINK-3718"},{"BSTAR":"0.00201350000000","ECCENTRICITY":"0.00017330","CLASSIFICATION_TYPE":"U","RCS_SIZE":"LARGE","ELEMENT_SET_NO":"999","OBJECT_ID":"2022-029AX","MEAN_MOTION_DOT":"0.00031894","PERIAPSIS":"538.575","FILE":"3554009","MEAN_ELEMENT_THEORY":"SGP4","OBJECT_NAME":"STARLINK-3707","ARG_OF_PERICENTER":"63.7492","TLE_LINE1":"1 52133U 22029AX  22244.91667824  .00031894  00000-0  20135-2 0  9994","SITE":"AFETR","REV_AT_EPOCH":"130","DECAY_DATE":null,"SEMIMAJOR_AXIS":"6917.909","NORAD_CAT_ID":"52133","MEAN_ANOMALY":"161.1032","MEAN_MOTION":"15.08830618","CENTER_NAME":"EARTH","EPHEMERIS_TYPE":"0","PERIOD":"95.438","INCLINATION":"53.2172","EPOCH":"2022-09-01T22:00:00.999936","APOAPSIS":"540.973","OBJECT_TYPE":"PAYLOAD","GP_ID":"211505315","LAUNCH_DATE":"2022-03-19","TIME_SYSTEM":"UTC","RA_OF_ASC_NODE":"76.6792","REF_FRAME":"TEME","COUNTRY_CODE":"US","TLE_LINE2":"2 52133  53.2172  76.6792 0001733  63.7492 161.1032 15.08830618  1306","MEAN_MOTION_DDOT":"0.0000000000000"},{"APOAPSIS":"541.071","INCLINATION":"53.2170","EPOCH":"2022-09-01T22:00:00.999936","PERIOD":"95.439","CENTER_NAME":"EARTH","EPHEMERIS_TYPE":"0","MEAN_ANOMALY":"148.5631","MEAN_MOTION":"15.08811609","NORAD_CAT_ID":"52134","SEMIMAJOR_AXIS":"6917.967","MEAN_MOTION_DDOT":"0.0000000000000","TLE_LINE2":"2 52134  53.2170  76.6785 0001791  56.3100 148.5631 15.08811609 26978","RA_OF_ASC_NODE":"76.6785","REF_FRAME":"TEME","COUNTRY_CODE":"US","LAUNCH_DATE":"2022-03-19","TIME_SYSTEM":"UTC","GP_ID":"211474088","OBJECT_TYPE":"PAYLOAD","ELEMENT_SET_NO":"999","RCS_SIZE":"LARGE","CLASSIFICATION_TYPE":"U","BSTAR":"0.00203590000000","ECCENTRICITY":"0.00017910","DECAY_DATE":null,"ARG_OF_PERICENTER":"56.3100","TLE_LINE1":"1 52134U 22029AY  22244.91667824  .00032237  00000-0  20359-2 0  9995","REV_AT_EPOCH":"2697","SITE":"AFETR","OBJECT_NAME":"STARLINK-3721","PERIAPSIS":"538.593","FILE":"3553701","MEAN_ELEMENT_THEORY":"SGP4","OBJECT_ID":"2022-029AY","MEAN_MOTION_DOT":"0.00032237"},{"ELEMENT_SET_NO":"999","RCS_SIZE":"LARGE","ECCENTRICITY":"0.00019990","BSTAR":"0.00200930000000","CLASSIFICATION_TYPE":"U","ARG_OF_PERICENTER":"58.7091","TLE_LINE1":"1 52135U 22029AZ  22244.91667824  .00031827  00000-0  20093-2 0  9995","REV_AT_EPOCH":"130","SITE":"AFETR","DECAY_DATE":null,"OBJECT_NAME":"STARLINK-3729","MEAN_MOTION_DOT":"0.00031827","OBJECT_ID":"2022-029AZ","PERIAPSIS":"538.392","FILE":"3554009","MEAN_ELEMENT_THEORY":"SGP4","INCLINATION":"53.2174","EPOCH":"2022-09-01T22:00:00.999936","APOAPSIS":"541.158","CENTER_NAME":"EARTH","EPHEMERIS_TYPE":"0","PERIOD":"95.438","MEAN_ANOMALY":"226.1408","MEAN_MOTION":"15.08830363","SEMIMAJOR_AXIS":"6917.910","NORAD_CAT_ID":"52135","TLE_LINE2":"2 52135  53.2174  76.6799 0001999  58.7091 226.1408 15.08830363  1306","MEAN_MOTION_DDOT":"0.0000000000000","RA_OF_ASC_NODE":"76.6799","REF_FRAME":"TEME","COUNTRY_CODE":"US","GP_ID":"211504814","LAUNCH_DATE":"2022-03-19","TIME_SYSTEM":"UTC","OBJECT_TYPE":"PAYLOAD"},{"ECCENTRICITY":"0.00018680","BSTAR":"0.00212760000000","CLASSIFICATION_TYPE":"U","RCS_SIZE":"LARGE","ELEMENT_SET_NO":"999","MEAN_MOTION_DOT":"0.00033715","OBJECT_ID":"2022-029BA","MEAN_ELEMENT_THEORY":"SGP4","FILE":"3553709","PERIAPSIS":"538.519","OBJECT_NAME":"STARLINK-3720","REV_AT_EPOCH":"2697","SITE":"AFETR","ARG_OF_PERICENTER":"62.9808","TLE_LINE1":"1 52136U 22029BA  22244.91667824  .00033715  00000-0  21276-2 0  9998","DECAY_DATE":null,"SEMIMAJOR_AXIS":"6917.946","NORAD_CAT_ID":"52136","MEAN_MOTION":"15.08818602","MEAN_ANOMALY":"181.8664","EPHEMERIS_TYPE":"0","CENTER_NAME":"EARTH","PERIOD":"95.439","EPOCH":"2022-09-01T22:00:00.999936","INCLINATION":"53.2171","APOAPSIS":"541.103","OBJECT_TYPE":"PAYLOAD","GP_ID":"211473610","TIME_SYSTEM":"UTC","LAUNCH_DATE":"2022-03-19","COUNTRY_CODE":"US","RA_OF_ASC_NODE":"76.6790","REF_FRAME":"TEME","TLE_LINE2":"2 52136  53.2171  76.6790 0001868  62.9808 181.8664 15.08818602 26976","MEAN_MOTION_DDOT":"0.0000000000000"},{"NORAD_CAT_ID":"52137","SEMIMAJOR_AXIS":"6917.957","MEAN_MOTION":"15.08814800","MEAN_ANOMALY":"241.8987","PERIOD":"95.439","EPHEMERIS_TYPE":"0","CENTER_NAME":"EARTH","APOAPSIS":"540.997","INCLINATION":"53.2172","EPOCH":"2022-09-01T22:00:00.999936","OBJECT_TYPE":"PAYLOAD","TIME_SYSTEM":"UTC","LAUNCH_DATE":"2022-03-19","GP_ID":"211474110","COUNTRY_CODE":"US","REF_FRAME":"TEME","RA_OF_ASC_NODE":"76.6788","MEAN_MOTION_DDOT":"0.0000000000000","TLE_LINE2":"2 52137  53.2172  76.6788 0001698  62.9902 241.8987 15.08814800 26972","CLASSIFICATION_TYPE":"U","BSTAR":"0.00108410000000","ECCENTRICITY":"0.00016980","RCS_SIZE":"LARGE","ELEMENT_SET_NO":"999","MEAN_ELEMENT_THEORY":"SGP4","FILE":"3553709","PERIAPSIS":"538.648","OBJECT_ID":"2022-029BB","MEAN_MOTION_DOT":"0.00016996","OBJECT_NAME":"STARLINK-3733","DECAY_DATE":null,"SITE":"AFETR","REV_AT_EPOCH":"2697","TLE_LINE1":"1 52137U 22029BB  22244.91667824  .00016996  00000-0  10841-2 0  9997","ARG_OF_PERICENTER":"62.9902"},{"OBJECT_TYPE":"PAYLOAD","TIME_SYSTEM":"UTC","LAUNCH_DATE":"2022-03-19","GP_ID":"211504064","COUNTRY_CODE":"US","RA_OF_ASC_NODE":"76.6802","REF_FRAME":"TEME","MEAN_MOTION_DDOT":"0.0000000000000","TLE_LINE2":"2 52138  53.2173  76.6802 0001553  61.8672 203.0117 15.08809919  1303","NORAD_CAT_ID":"52138","SEMIMAJOR_AXIS":"6917.972","MEAN_MOTION":"15.08809919","MEAN_ANOMALY":"203.0117","PERIOD":"95.439","EPHEMERIS_TYPE":"0","CENTER_NAME":"EARTH","APOAPSIS":"540.912","INCLINATION":"53.2173","EPOCH":"2022-09-01T22:00:00.999936","FILE":"3554009","MEAN_ELEMENT_THEORY":"SGP4","PERIAPSIS":"538.763","MEAN_MOTION_DOT":"0.00023505","OBJECT_ID":"2022-029BC","OBJECT_NAME":"STARLINK-3723","DECAY_DATE":null,"REV_AT_EPOCH":"130","SITE":"AFETR","TLE_LINE1":"1 52138U 22029BC  22244.91667824  .00023505  00000-0  14912-2 0  9995","ARG_OF_PERICENTER":"61.8672","CLASSIFICATION_TYPE":"U","BSTAR":"0.00149120000000","ECCENTRICITY":"0.00015530","RCS_SIZE":"LARGE","ELEMENT_SET_NO":"999"},{"SITE":"AFETR","REV_AT_EPOCH":"130","ARG_OF_PERICENTER":"57.7810","TLE_LINE1":"1 52139U 22029BD  22244.91667824 -.00012208  00000-0 -75001-3 0  9993","DECAY_DATE":null,"OBJECT_NAME":"STARLINK-3730","OBJECT_ID":"2022-029BD","MEAN_MOTION_DOT":"-0.00012208","MEAN_ELEMENT_THEORY":"SGP4","FILE":"3554009","PERIAPSIS":"538.343","ELEMENT_SET_NO":"999","RCS_SIZE":"LARGE","BSTAR":"-0.00075001000000","ECCENTRICITY":"0.00019900","CLASSIFICATION_TYPE":"U","TLE_LINE2":"2 52139  53.2168  86.6832 0001990  57.7810 312.0707 15.08848532  1305","MEAN_MOTION_DDOT":"0.0000000000000","COUNTRY_CODE":"US","RA_OF_ASC_NODE":"86.6832","REF_FRAME":"TEME","GP_ID":"211504314","TIME_SYSTEM":"UTC","LAUNCH_DATE":"2022-03-19","OBJECT_TYPE":"PAYLOAD","EPOCH":"2022-09-01T22:00:00.999936","INCLINATION":"53.2168","APOAPSIS":"541.096","EPHEMERIS_TYPE":"0","CENTER_NAME":"EARTH","PERIOD":"95.437","MEAN_MOTION":"15.08848532","MEAN_ANOMALY":"312.0707","SEMIMAJOR_AXIS":"6917.854","NORAD_CAT_ID":"52139"},{"ELEMENT_SET_NO":"999","RCS_SIZE":"LARGE","BSTAR":"0.00184780000000","ECCENTRICITY":"0.00015050","CLASSIFICATION_TYPE":"U","ARG_OF_PERICENTER":"69.6415","TLE_LINE1":"1 52140U 22029BE  22244.91667824  .00029220  00000-0  18478-2 0  9999","REV_AT_EPOCH":"2697","SITE":"AFETR","DECAY_DATE":null,"OBJECT_NAME":"STARLINK-3682","MEAN_MOTION_DOT":"0.00029220","OBJECT_ID":"2022-029BE","PERIAPSIS":"538.787","FILE":"3553702","MEAN_ELEMENT_THEORY":"SGP4","EPOCH":"2022-09-01T22:00:00.999936","INCLINATION":"53.2173","APOAPSIS":"540.869","CENTER_NAME":"EARTH","EPHEMERIS_TYPE":"0","PERIOD":"95.439","MEAN_ANOMALY":"255.1432","MEAN_MOTION":"15.08813013","SEMIMAJOR_AXIS":"6917.963","NORAD_CAT_ID":"52140","TLE_LINE2":"2 52140  53.2173  76.6801 0001505  69.6415 255.1432 15.08813013 26971","MEAN_MOTION_DDOT":"0.0000000000000","RA_OF_ASC_NODE":"76.6801","REF_FRAME":"TEME","COUNTRY_CODE":"US","GP_ID":"211473613","LAUNCH_DATE":"2022-03-19","TIME_SYSTEM":"UTC","OBJECT_TYPE":"PAYLOAD"}];
